NORAD_CAT_ID,OBJECT_NAME,OBJECT_TYPE,EPOCH,MEAN_MOTION,ECCENTRICITY,INCLINATION,RA_OF_ASC_NODE,ARG_OF_PERICENTER,MEAN_ANOMALY,BSTAR,MEAN_MOTION_DOT,MEAN_MOTION_DDOT,TLE_LINE0,TLE_LINE1,TLE_LINE2,SEMIMAJOR_AXIS,PERIOD,APOGEE,PERIGEE,DECAYED
55783.0,STARLINK-5825,PAYLOAD,2024-04-27 03:35:56,14.98330708,0.0003029,69.9986,123.0432,267.1025,92.9787,6.502e-06,-1.5e-07,0.0,0 STARLINK-5825,1 55783U 23028AU  24118.14996137 -.00000015  00000-0  65020-5 0  9994,2 55783  69.9986 123.0432 0003029 267.1025  92.9787 14.98330708 64936,6950.191,96.107,574.161,569.95,0.0
55783.0,STARLINK-5825,PAYLOAD,2024-04-27 10:00:28,14.9833205,0.0003001,69.9985,122.3696,266.088,93.9936,2.2401e-05,1.74e-06,0.0,0 STARLINK-5825,1 55783U 23028AU  24118.41699969  .00000174  00000-0  22401-4 0  9997,2 55783  69.9985 122.3696 0003001 266.0880  93.9936 14.98332050 64979,6950.187,96.107,574.137,569.966,0.0
55783.0,STARLINK-5825,PAYLOAD,2024-04-27 18:01:09,14.98330868,0.000301,69.9985,121.5267,269.9778,90.1036,5.5668e-06,-2.7e-07,0.0,0 STARLINK-5825,1 55783U 23028AU  24118.75080059 -.00000027  00000-0  55668-5 0  9998,2 55783  69.9985 121.5267 0003010 269.9778  90.1036 14.98330868 65024,6950.19,96.107,574.147,569.963,0.0
55783.0,STARLINK-5825,PAYLOAD,2024-04-28 03:37:57,14.98327843,0.0002984,69.9983,120.5168,269.3481,90.7336,-1.2772e-05,-2.45e-06,0.0,0 STARLINK-5825,1 55783U 23028AU  24119.15136292 -.00000245  00000-0 -12772-4 0  9995,2 55783  69.9983 120.5168 0002984 269.3481  90.7336 14.98327843 65089,6950.2,96.107,574.139,569.991,0.0
55783.0,STARLINK-5825,PAYLOAD,2024-04-28 10:02:29,14.98328791,0.0002943,69.9984,119.8437,270.6294,89.4528,5.1272e-06,-3.2e-07,0.0,0 STARLINK-5825,1 55783U 23028AU  24119.41840217 -.00000032  00000-0  51272-5 0  9995,2 55783  69.9984 119.8437 0002943 270.6294  89.4528 14.98328791 65128,6950.197,96.107,574.107,570.016,0.0
55783.0,STARLINK-5825,PAYLOAD,2024-04-29 03:39:58,14.98330432,0.0002938,69.9983,117.9921,270.7699,89.3123,-5.9063e-06,-1.63e-06,0.0,0 STARLINK-5825,1 55783U 23028AU  24120.15276110 -.00000163  00000-0 -59063-5 0  9995,2 55783  69.9983 117.9921 0002938 270.7699  89.3123 14.98330432 65235,6950.192,96.107,574.099,570.015,0.0
55783.0,STARLINK-5825,PAYLOAD,2024-04-29 10:04:30,14.98331247,0.0002861,69.9983,117.3188,266.3268,93.7564,-1.7715e-06,-1.14e-06,0.0,0 STARLINK-5825,1 55783U 23028AU  24120.41980023 -.00000114  00000-0 -17715-5 0  9993,2 55783  69.9983 117.3188 0002861 266.3268  93.7564 14.98331247 65279,6950.189,96.107,574.042,570.066,0.0
55783.0,STARLINK-5825,PAYLOAD,2024-04-29 16:29:03,14.98330726,0.0002962,69.9983,116.6456,271.0389,89.0431,2.6638e-06,-6.1e-07,0.0,0 STARLINK-5825,1 55783U 23028AU  24120.68684034 -.00000061  00000-0  26638-5 0  9999,2 55783  69.9983 116.6456 0002962 271.0389  89.0431 14.98330726 65315,6950.191,96.107,574.114,569.997,0.0
55783.0,STARLINK-5825,PAYLOAD,2024-04-30 03:41:59,14.9833041,0.0002996,69.9981,115.4672,270.9608,89.1208,3.8275e-05,3.64e-06,0.0,0 STARLINK-5825,1 55783U 23028AU  24121.15415898  .00000364  00000-0  38275-4 0  9996,2 55783  69.9981 115.4672 0002996 270.9608  89.1208 14.98330410 65389,6950.192,96.107,574.139,569.974,0.0
55783.0,STARLINK-5825,PAYLOAD,2024-04-30 08:30:22,14.98368831,0.0002536,69.9982,114.9622,273.3802,86.7067,-0.0005976,-7.223e-05,0.0,0 STARLINK-5825,1 55783U 23028AU  24121.35443078 -.00007223  00000-0 -59760-3 0  9993,2 55783  69.9982 114.9622 0002536 273.3802  86.7067 14.98368831 65410,6950.073,96.105,573.7,570.175,0.0
55783.0,STARLINK-5825,PAYLOAD,2024-04-30 16:31:03,14.98329721,0.000298,69.9982,114.1201,271.7377,88.3441,-1.4773e-05,-2.69e-06,0.0,0 STARLINK-5825,1 55783U 23028AU  24121.68824063 -.00000269  00000-0 -14773-4 0  9995,2 55783  69.9982 114.1201 0002980 271.7377  88.3441 14.98329721 65461,6950.194,96.107,574.13,569.988,0.0
55783.0,STARLINK-5825,PAYLOAD,2024-04-30 22:55:36,14.98327748,0.0002793,69.9984,113.4461,271.51,88.5739,2.1471e-05,1.63e-06,0.0,0 STARLINK-5825,1 55783U 23028AU  24121.95528071  .00000163  00000-0  21471-4 0  9999,2 55783  69.9984 113.4461 0002793 271.5100  88.5739 14.98327748 65501,6950.2,96.107,574.006,570.124,0.0
55783.0,STARLINK-5825,PAYLOAD,2024-05-01 05:20:08,14.98328622,0.0003008,69.9981,112.7739,270.5477,89.5337,-1.4491e-05,-2.66e-06,0.0,0 STARLINK-5825,1 55783U 23028AU  24122.22232121 -.00000266  00000-0 -14491-4 0  9998,2 55783  69.9981 112.7739 0003008 270.5477  89.5337 14.98328622 65545,6950.197,96.107,574.153,569.972,0.0
55783.0,STARLINK-5825,PAYLOAD,2024-05-01 16:33:05,14.98329074,0.0003303,69.9986,111.5949,270.4267,89.6513,-0.00018933,-2.351e-05,0.0,0 STARLINK-5825,1 55783U 23028AU  24122.68964339 -.00002351  00000-0 -18933-3 0  9992,2 55783  69.9986 111.5949 0003303 270.4267  89.6513 14.98329074 65611,6950.196,96.107,574.356,569.765,0.0
55783.0,STARLINK-5825,PAYLOAD,2024-05-01 22:57:36,14.98330022,0.0003209,69.9982,110.9214,270.955,89.1241,4.0478e-05,3.9e-06,0.0,0 STARLINK-5825,1 55783U 23028AU  24122.95667772  .00000390  00000-0  40478-4 0  9992,2 55783  69.9982 110.9214 0003209 270.9550  89.1241 14.98330022 65652,6950.193,96.107,574.288,569.828,0.0
55783.0,STARLINK-5825,PAYLOAD,2024-05-02 05:22:09,14.98334237,0.0003042,69.998,110.2488,270.0402,90.0408,1.3812e-05,7.2e-07,0.0,0 STARLINK-5825,1 55783U 23028AU  24123.22371559  .00000072  00000-0  13812-4 0  9997,2 55783  69.9980 110.2488 0003042 270.0402  90.0408 14.98334237 65690,6950.18,96.107,574.159,569.931,0.0
55783.0,STARLINK-5825,PAYLOAD,2024-05-02 08:34:25,14.98335054,0.0003129,69.9979,109.9118,270.9883,89.0917,1.704e-05,1.1e-06,0.0,0 STARLINK-5825,1 55783U 23028AU  24123.35723461  .00000110  00000-0  17040-4 0  9994,2 55783  69.9979 109.9118 0003129 270.9883  89.0917 14.98335054 65715,6950.177,96.107,574.217,569.868,0.0
55783.0,STARLINK-5825,PAYLOAD,2024-05-03 05:24:10,14.98330889,0.0002992,69.9981,107.7237,269.1763,90.9053,3.7077e-05,3.49e-06,0.0,0 STARLINK-5825,1 55783U 23028AU  24124.22511578  .00000349  00000-0  37077-4 0  9991,2 55783  69.9981 107.7237 0002992 269.1763  90.9053 14.98330889 65847,6950.19,96.107,574.135,569.976,0.0
55783.0,STARLINK-5825,PAYLOAD,2024-05-03 08:36:26,14.98330885,0.0002994,69.9982,107.3871,269.2311,90.8505,3.5282e-05,3.28e-06,0.0,0 STARLINK-5825,1 55783U 23028AU  24124.35863568  .00000328  00000-0  35282-4 0  9997,2 55783  69.9982 107.3871 0002994 269.2311  90.8505 14.98330885 65869,6950.19,96.107,574.136,569.974,0.0
55783.0,STARLINK-5825,PAYLOAD,2024-05-03 21:26:13,14.97834,0.0004389,69.9982,106.0422,107.1437,253.0202,-0.0054069,-0.00063222,0.0,0 STARLINK-5825,1 55783U 23028AU  24124.89321451 -.00063222  00000-0 -54069-2 0  9992,2 55783  69.9982 106.0422 0004389 107.1437 253.0202 14.97834000 65949,6951.727,96.139,576.643,570.541,0.0
55783.0,STARLINK-5825,PAYLOAD,2024-05-04 11:50:43,14.98326298,0.0002951,69.9984,104.5252,269.0759,91.0062,-6.3101e-05,-8.46e-06,0.0,0 STARLINK-5825,1 55783U 23028AU  24125.49356245 -.00000846  00000-0 -63101-4 0  9990,2 55783  69.9984 104.5252 0002951 269.0759  91.0062 14.98326298 66034,6950.204,96.107,574.12,570.018,0.0
55783.0,STARLINK-5825,PAYLOAD,2024-05-05 08:40:28,14.9833183,0.0003013,69.9985,102.3374,270.0816,89.9998,8.747e-06,1.1e-07,0.0,0 STARLINK-5825,1 55783U 23028AU  24126.36143776  .00000011  00000-0  87470-5 0  9998,2 55783  69.9985 102.3374 0003013 270.0816  89.9998 14.98331830 66168,6950.187,96.107,574.146,569.958,0.0
55783.0,STARLINK-5825,PAYLOAD,2024-05-05 23:05:40,14.98331643,0.0003033,69.9988,100.8225,267.1836,92.8976,0.00012312,1.376e-05,0.0,0 STARLINK-5825,1 55783U 23028AU  24126.96227419  .00001376  00000-0  12312-3 0  9997,2 55783  69.9988 100.8225 0003033 267.1836  92.8976 14.98331643 66251,6950.188,96.107,574.161,569.945,0.0
55783.0,STARLINK-5825,PAYLOAD,2024-05-06 08:42:28,14.98336257,0.0002939,69.9988,99.8129,270.4699,89.6124,0.00012015,1.341e-05,0.0,0 STARLINK-5825,1 55783U 23028AU  24127.36283089  .00001341  00000-0  12015-3 0  9999,2 55783  69.9988  99.8129 0002939 270.4699  89.6124 14.98336257 66311,6950.174,96.107,574.081,569.996,0.0
55783.0,STARLINK-5825,PAYLOAD,2024-05-06 21:31:33,14.98336751,0.0002823,69.9993,98.4662,269.063,91.0206,2.2939e-05,1.81e-06,0.0,0 STARLINK-5825,1 55783U 23028AU  24127.89691119  .00000181  00000-0  22939-4 0  9992,2 55783  69.9993  98.4662 0002823 269.0630  91.0206 14.98336751 66390,6950.172,96.107,573.999,570.075,0.0
55783.0,STARLINK-5825,PAYLOAD,2024-05-07 03:56:05,14.98332409,0.0003111,69.9991,97.7933,268.6266,91.4537,4.6471e-05,4.62e-06,0.0,0 STARLINK-5825,1 55783U 23028AU  24128.16395250  .00000462  00000-0  46471-4 0  9999,2 55783  69.9991  97.7933 0003111 268.6266  91.4537 14.98332409 66434,6950.185,96.107,574.213,569.888,0.0
55783.0,STARLINK-5825,PAYLOAD,2024-05-07 07:08:21,14.98321873,0.0002992,69.9991,97.4568,266.1193,93.9624,0.00021883,2.518e-05,0.0,0 STARLINK-5825,1 55783U 23028AU  24128.29747462  .00002518  00000-0  21883-3 0  9992,2 55783  69.9991  97.4568 0002992 266.1193  93.9624 14.98321873 66452,6950.218,96.108,574.163,570.004,0.0
55783.0,STARLINK-5825,PAYLOAD,2024-05-07 21:33:34,14.98329103,0.0002494,69.9999,95.9419,266.4016,93.6858,-8.4011e-05,-1.095e-05,0.0,0 STARLINK-5825,1 55783U 23028AU  24128.89831797 -.00001095  00000-0 -84011-4 0  9997,2 55783  69.9999  95.9419 0002494 266.4016  93.6858 14.98329103 66542,6950.196,96.107,573.794,570.327,0.0
55783.0,STARLINK-5825,PAYLOAD,2024-05-08 03:58:07,14.9832558,0.0002739,69.9996,95.2693,267.7707,92.3139,-0.00012963,-1.639e-05,0.0,0 STARLINK-5825,1 55783U 23028AU  24129.16536140 -.00001639  00000-0 -12963-3 0  9992,2 55783  69.9996  95.2693 0002739 267.7707  92.3139 14.98325580 66586,6950.207,96.107,573.975,570.168,0.0
55783.0,STARLINK-5825,PAYLOAD,2024-05-08 07:10:23,14.98325288,0.0002676,69.9995,94.9321,263.1519,96.9336,-0.00013592,-1.714e-05,0.0,0 STARLINK-5825,1 55783U 23028AU  24129.29888193 -.00001714  00000-0 -13592-3 0  9997,2 55783  69.9995  94.9321 0002676 263.1519  96.9336 14.98325288 66607,6950.207,96.107,573.932,570.213,0.0
